KUIPER-00104            
1 65142U 25171L   25243.56780022  .00039571  00000+0  11310-2 0  9992
2 65142  51.8785 308.0485 0004061 211.5261 148.5482 15.35597248  4321
KUIPER-00105            
1 65143U 25171M   25243.56168334  .00025129  00000+0  71120-3 0  9999
2 65143  51.8772 308.0050 0005356 187.8338 172.2566 15.36132377  4331
KUIPER-00106            
1 65144U 25171N   25243.56598998  .00022626  00000+0  64847-3 0  9990
2 65144  51.8772 308.0288 0004747 200.1690 159.9109 15.35802720  4338
KUIPER-00107            
1 65145U 25171P   25243.56661817  .00019517  00000+0  56279-3 0  9997
2 65145  51.8782 308.0404 0004893 203.4677 156.6087 15.35707240  4333
KUIPER-00108            
1 65146U 25171Q   25243.57133061  .00035489  00000+0  10263-2 0  9992
2 65146  51.8786 308.0718 0005016 223.8953 136.1635 15.35277226  4335
KUIPER-00109            
1 65147U 25171R   25243.56431242  .00032207  00000+0  91628-3 0  9994
2 65147  51.8773 308.0203 0004902 198.5298 161.5510 15.35837124  4326
KUIPER-00110            
1 65148U 25171S   25243.56548269  .00023278  00000+0  66583-3 0  9993
2 65148  51.8780 308.0324 0004750 197.6265 162.4557 15.35848437  4324
KUIPER-00111            
1 65149U 25171T   25243.56898515  .00030651  00000+0  88011-3 0  9999
2 65149  51.8785 308.0558 0004033 217.1552 142.9155 15.35576620  4329
